[{"OBJECT_NAME":"ORBCOMM FM27","OBJECT_ID":"1998-053G","EPOCH":"2026-03-09T11:53:47.305824","MEAN_MOTION":14.3893044,"ECCENTRICITY":0.00018909,"INCLINATION":45.0048,"RA_OF_ASC_NODE":88.78,"ARG_OF_PERICENTER":259.8961,"MEAN_ANOMALY":100.1675,"EPHEMERIS_TYPE":0,"CLASSIFICATION_TYPE":"U","NORAD_CAT_ID":25481,"ELEMENT_SET_NO":999,"REV_AT_EPOCH":43587,"BSTAR":0.00047812945,"MEAN_MOTION_DOT":1.345e-5,"MEAN_MOTION_DDOT":0},{"OBJECT_NAME":"COSMOS 468 DEB","OBJECT_ID":"1971-114F","EPOCH":"2026-02-28T01:08:40.712352","MEAN_MOTION":14.425402,"ECCENTRICITY":0.00135596,"INCLINATION":74.0177,"RA_OF_ASC_NODE":300.6549,"ARG_OF_PERICENTER":355.0381,"MEAN_ANOMALY":5.0638,"EPHEMERIS_TYPE":0,"CLASSIFICATION_TYPE":"U","NORAD_CAT_ID":37887,"ELEMENT_SET_NO":999,"REV_AT_EPOCH":24173,"BSTAR":0.00011445593,"MEAN_MOTION_DOT":3.53e-6,"MEAN_MOTION_DDOT":0}]
